[
    {
        "Altitude(m)": 622200.0945099537,
        "Argument of Periapsis(deg)": 0.0,
        "Eccentricity": 0.0,
        "Inclination(deg)": 60.0,
        "Latitude(deg)": -52.16250320051775,
        "Longitude(deg)": 157.36064077416435,
        "Mean Anomaly(deg)": -65.45449999999998,
        "RAAN(deg)": 305.0,
        "Satellite Name": "Test1 1360",
        "Satellite Number": 1360,
        "Semi-Major Axis(m)": 6980739.136638005,
        "Time(s)": 0
    },
    {
        "Altitude(m)": 622058.262645739,
        "Argument of Periapsis(deg)": 0.00010418945913296404,
        "Eccentricity": 0.0,
        "Inclination(deg)": 60.0,
        "Latitude(deg)": -51.79925402331296,
        "Longitude(deg)": 158.12869952459002,
        "Mean Anomaly(deg)": -64.83439385453813,
        "RAAN(deg)": 304.99957995086027,
        "Satellite Name": "Test1 1360",
        "Satellite Number": 1360,
        "Semi-Major Axis(m)": 6980739.136638005,
        "Time(s)": 10
    },
    {
        "Altitude(m)": 621913.6974933738,
        "Argument of Periapsis(deg)": 0.0002083789182659281,
        "Eccentricity": 0.0,
        "Inclination(deg)": 60.0,
        "Latitude(deg)": -51.43049325572538,
        "Longitude(deg)": 158.88377955054617,
        "Mean Anomaly(deg)": -64.21428770907637,
        "RAAN(deg)": 304.9991599017205,
        "Satellite Name": "Test1 1360",
        "Satellite Number": 1360,
        "Semi-Major Axis(m)": 6980739.136638005,
        "Time(s)": 20
    },
    {
        "Altitude(m)": 621766.4554920482,
        "Argument of Periapsis(deg)": 0.00031256837739889213,
        "Eccentricity": 0.0,
        "Inclination(deg)": 60.0,
        "Latitude(deg)": -51.05637801822735,
        "Longitude(deg)": 159.62607054590637,
        "Mean Anomaly(deg)": -63.59418156361448,
        "RAAN(deg)": 304.9987398525808,
        "Satellite Name": "Test1 1360",
        "Satellite Number": 1360,
        "Semi-Major Axis(m)": 6980739.136638005,
        "Time(s)": 30
    },
    {
        "Altitude(m)": 621616.5940973612,
        "Argument of Periapsis(deg)": 0.0004167578365318562,
        "Eccentricity": 0.0,
        "Inclination(deg)": 60.0,
        "Latitude(deg)": -50.677061740805634,
        "Longitude(deg)": 160.35576997016258,
        "Mean Anomaly(deg)": -62.974075418152715,
        "RAAN(deg)": 304.998319803441,
        "Satellite Name": "Test1 1360",
        "Satellite Number": 1360,
        "Semi-Major Axis(m)": 6980739.136638005,
        "Time(s)": 40
    },
    {
        "Altitude(m)": 621464.1717567152,
        "Argument of Periapsis(deg)": 0.0005209472956648203,
        "Eccentricity": 0.0,
        "Inclination(deg)": 60.0,
        "Latitude(deg)": -50.29269413595187,
        "Longitude(deg)": 161.07308099859137,
        "Mean Anomaly(deg)": -62.353969272690875,
        "RAAN(deg)": 304.9978997543013,
        "Satellite Name": "Test1 1360",
        "Satellite Number": 1360,
        "Semi-Major Axis(m)": 6980739.136638005,
        "Time(s)": 50
    },
    {
        "Altitude(m)": 621309.2478842642,
        "Argument of Periapsis(deg)": 0.0006251367547977843,
        "Eccentricity": 0.0,
        "Inclination(deg)": 60.0,
        "Latitude(deg)": -49.90342118621105,
        "Longitude(deg)": 161.7782120546362,
        "Mean Anomaly(deg)": -61.73386312722902,
        "RAAN(deg)": 304.99747970516154,
        "Satellite Name": "Test1 1360",
        "Satellite Number": 1360,
        "Semi-Major Axis(m)": 6980739.136638005,
        "Time(s)": 60
    },
    {
        "Altitude(m)": 621151.882835439,
        "Argument of Periapsis(deg)": 0.0007293262139307483,
        "Eccentricity": 0.0,
        "Inclination(deg)": 60.0,
        "Latitude(deg)": -49.5093851448808,
        "Longitude(deg)": 162.4713764102311,
        "Mean Anomaly(deg)": -61.11375698176721,
        "RAAN(deg)": 304.9970596560218,
        "Satellite Name": "Test1 1360",
        "Satellite Number": 1360,
        "Semi-Major Axis(m)": 6980739.136638005,
        "Time(s)": 70
    },
    {
        "Altitude(m)": 620992.1378810358,
        "Argument of Periapsis(deg)": 0.0008335156730637124,
        "Eccentricity": 0.0,
        "Inclination(deg)": 60.0,
        "Latitude(deg)": -49.11072454852736,
        "Longitude(deg)": 163.15279033937077,
        "Mean Anomaly(deg)": -60.493650836305356,
        "RAAN(deg)": 304.99663960688207,
        "Satellite Name": "Test1 1360",
        "Satellite Number": 1360,
        "Semi-Major Axis(m)": 6980739.136638005,
        "Time(s)": 80
    },
    {
        "Altitude(m)": 620830.0751809059,
        "Argument of Periapsis(deg)": 0.0009377051321966765,
        "Eccentricity": 0.0,
        "Inclination(deg)": 60.0,
        "Latitude(deg)": -48.70757424006344,
        "Longitude(deg)": 163.8226728485145,
        "Mean Anomaly(deg)": -59.87354469084352,
        "RAAN(deg)": 304.99621955774234,
        "Satellite Name": "Test1 1360",
        "Satellite Number": 1360,
        "Semi-Major Axis(m)": 6980739.136638005,
        "Time(s)": 90
    },
    {
        "Altitude(m)": 620665.7577572264,
        "Argument of Periapsis(deg)": 0.0010418945913296407,
        "Eccentricity": 0.0,
        "Inclination(deg)": 60.0,
        "Latitude(deg)": -48.3000654012014,
        "Longitude(deg)": 164.481245468536,
        "Mean Anomaly(deg)": -59.253438545381655,
        "RAAN(deg)": 304.99579950860254,
        "Satellite Name": "Test1 1360",
        "Satellite Number": 1360,
        "Semi-Major Axis(m)": 6980739.136638005,
        "Time(s)": 100
    },
    {
        "Altitude(m)": 620499.2494673958,
        "Argument of Periapsis(deg)": 0.0011460840504626045,
        "Eccentricity": 0.0,
        "Inclination(deg)": 60.0,
        "Latitude(deg)": -47.88832559317285,
        "Longitude(deg)": 165.12873059272928,
        "Mean Anomaly(deg)": -58.63333239991985,
        "RAAN(deg)": 304.99537945946287,
        "Satellite Name": "Test1 1360",
        "Satellite Number": 1360,
        "Semi-Major Axis(m)": 6980739.136638005,
        "Time(s)": 110
    },
    {
        "Altitude(m)": 620330.6149765191,
        "Argument of Periapsis(deg)": 0.0012502735095955685,
        "Eccentricity": 0.0,
        "Inclination(deg)": 60.0,
        "Latitude(deg)": -47.47247880468799,
        "Longitude(deg)": 165.7653513838599,
        "Mean Anomaly(deg)": -58.013226254458,
        "RAAN(deg)": 304.9949594103231,
        "Satellite Name": "Test1 1360",
        "Satellite Number": 1360,
        "Semi-Major Axis(m)": 6980739.136638005,
        "Time(s)": 120
    },
    {
        "Altitude(m)": 620159.9197295628,
        "Argument of Periapsis(deg)": 0.0013544629687285324,
        "Eccentricity": 0.0,
        "Inclination(deg)": 60.0,
        "Latitude(deg)": -47.05264550617798,
        "Longitude(deg)": 166.39133173454198,
        "Mean Anomaly(deg)": -57.39312010899614,
        "RAAN(deg)": 304.99453936118334,
        "Satellite Name": "Test1 1360",
        "Satellite Number": 1360,
        "Semi-Major Axis(m)": 6980739.136638005,
        "Time(s)": 130
    },
    {
        "Altitude(m)": 619987.229923116,
        "Argument of Periapsis(deg)": 0.0014586524278614966,
        "Eccentricity": 0.0,
        "Inclination(deg)": 60.0,
        "Latitude(deg)": -46.62894270943473,
        "Longitude(deg)": 167.00689476517246,
        "Mean Anomaly(deg)": -56.7730139635343,
        "RAAN(deg)": 304.9941193120436,
        "Satellite Name": "Test1 1360",
        "Satellite Number": 1360,
        "Semi-Major Axis(m)": 6980739.136638005,
        "Time(s)": 140
    },
    {
        "Altitude(m)": 619812.6124768247,
        "Argument of Periapsis(deg)": 0.0015628418869944607,
        "Eccentricity": 0.0,
        "Inclination(deg)": 60.0,
        "Latitude(deg)": -46.20148403184308,
        "Longitude(deg)": 167.61226288225936,
        "Mean Anomaly(deg)": -56.15290781807249,
        "RAAN(deg)": 304.9936992629039,
        "Satellite Name": "Test1 1360",
        "Satellite Number": 1360,
        "Semi-Major Axis(m)": 6980739.136638005,
        "Time(s)": 150
    },
    {
        "Altitude(m)": 619636.1350044722,
        "Argument of Periapsis(deg)": 0.0016670313461274247,
        "Eccentricity": 0.0,
        "Inclination(deg)": 60.0,
        "Latitude(deg)": -45.77037976446088,
        "Longitude(deg)": 168.20765788138343,
        "Mean Anomaly(deg)": -55.53280167261064,
        "RAAN(deg)": 304.99327921376414,
        "Satellite Name": "Test1 1360",
        "Satellite Number": 1360,
        "Semi-Major Axis(m)": 6980739.136638005,
        "Time(s)": 160
    },
    {
        "Altitude(m)": 619457.8657847674,
        "Argument of Periapsis(deg)": 0.0017712208052603888,
        "Eccentricity": 0.0,
        "Inclination(deg)": 60.0,
        "Latitude(deg)": -45.33573694326712,
        "Longitude(deg)": 168.79329957907447,
        "Mean Anomaly(deg)": -54.91269552714889,
        "RAAN(deg)": 304.9928591646244,
        "Satellite Name": "Test1 1360",
        "Satellite Number": 1360,
        "Semi-Major Axis(m)": 6980739.136638005,
        "Time(s)": 170
    },
    {
        "Altitude(m)": 619277.8737317693,
        "Argument of Periapsis(deg)": 0.001875410264393353,
        "Eccentricity": 0.0,
        "Inclination(deg)": 60.0,
        "Latitude(deg)": -44.89765942296767,
        "Longitude(deg)": 169.36940599656924,
        "Mean Anomaly(deg)": -54.29258938168704,
        "RAAN(deg)": 304.9924391154846,
        "Satellite Name": "Test1 1360",
        "Satellite Number": 1360,
        "Semi-Major Axis(m)": 6980739.136638005,
        "Time(s)": 180
    },
    {
        "Altitude(m)": 619096.2283650662,
        "Argument of Periapsis(deg)": 0.0019795997235263173,
        "Eccentricity": 0.0,
        "Inclination(deg)": 60.0,
        "Latitude(deg)": -44.456247952801405,
        "Longitude(deg)": 169.9361935798789,
        "Mean Anomaly(deg)": -53.67248323622523,
        "RAAN(deg)": 304.99201906634494,
        "Satellite Name": "Test1 1360",
        "Satellite Number": 1360,
        "Semi-Major Axis(m)": 6980739.136638005,
        "Time(s)": 190
    }
]